{
    "links": {
        "self": "http://www.neowsapp.com/rest/v1/neo/3843747?api_key=iIulBulltgU6a56xZRHN4H3l9WmuAYTsLGpBGhQ2"
    },
    "id": "3843747",
    "neo_reference_id": "3843747",
    "name": "(2019 QX7)",
    "designation": "2019 QX7",
    "nasa_jpl_url": "http://ssd.jpl.nasa.gov/sbdb.cgi?sstr=3843747",
    "absolute_magnitude_h": 24.6,
    "estimated_diameter": {
        "kilometers": {
            "estimated_diameter_min": 0.0319561887,
            "estimated_diameter_max": 0.0714562102
        },
        "meters": {
            "estimated_diameter_min": 31.9561886721,
            "estimated_diameter_max": 71.4562101727
        },
        "miles": {
            "estimated_diameter_min": 0.0198566489,
            "estimated_diameter_max": 0.0444008168
        },
        "feet": {
            "estimated_diameter_min": 104.8431420431,
            "estimated_diameter_max": 234.436392583
        }
    },
    "is_potentially_hazardous_asteroid": false,
    "close_approach_data": [
        {
            "close_approach_date": "2019-08-17",
            "close_approach_date_full": "2019-Aug-17 03:15",
            "epoch_date_close_approach": 1566011700000,
            "relative_velocity": {
                "kilometers_per_second": "4.9831049701",
                "kilometers_per_hour": "17939.1778922721",
                "miles_per_hour": "11146.7075075621"
            },
            "miss_distance": {
                "astronomical": "0.1561880835",
                "lunar": "60.7571644815",
                "kilometers": "23365404.610982145",
                "miles": "14518589.189337801"
            },
            "orbiting_body": "Earth"
        }
    ],
    "orbital_data": {
        "orbit_id": "2",
        "orbit_determination_date": "2019-09-04 06:13:03",
        "first_observation_date": "2019-08-28",
        "last_observation_date": "2019-09-03",
        "data_arc_in_days": 6,
        "observations_used": 15,
        "orbit_uncertainty": "9",
        "minimum_orbit_intersection": ".155482",
        "jupiter_tisserand_invariant": "3.588",
        "epoch_osculation": "2458726.5",
        "eccentricity": ".4583793887424943",
        "semi_major_axis": "2.115160101357293",
        "inclination": "5.725135271224835",
        "ascending_node_longitude": "189.6681696442309",
        "orbital_period": "1123.604048700323",
        "perihelion_distance": "1.145614307004625",
        "perihelion_argument": "128.0685453178982",
        "aphelion_distance": "3.084705895709961",
        "perihelion_time": "2458707.334322842298",
        "mean_anomaly": "6.140636271962143",
        "mean_motion": ".3203975639073332",
        "equinox": "J2000",
        "orbit_class": {
            "orbit_class_type": "AMO",
            "orbit_class_description": "Near-Earth asteroid orbits similar to that of 1221 Amor",
            "orbit_class_range": "1.017 AU < q (perihelion) < 1.3 AU"
        }
    },
    "is_sentry_object": false
}